start=new Date('2023-05-28T00:00:00.000Z').valueOf();
sats=[{"TLE_LINE2":"2 51109  53.2161 176.1281 0001041  88.7486 271.3626 15.08840927 75068","NORAD_CAT_ID":"51109","EPOCH":"2023-05-27T08:26:40.866432","SEMIMAJOR_AXIS":"6917.878","MEAN_ELEMENT_THEORY":"SGP4","SITE":"AFETR","MEAN_MOTION":"15.08840927","FILE":"3918755","REF_FRAME":"TEME","OBJECT_NAME":"STARLINK-3358","ECCENTRICITY":"0.00010410","CENTER_NAME":"EARTH","TLE_LINE1":"1 51109U 22005F   23147.35186188  .00000759  00000-0  65765-4 0  9996","RCS_SIZE":"LARGE","EPHEMERIS_TYPE":"0","CLASSIFICATION_TYPE":"U","OBJECT_TYPE":"PAYLOAD","INCLINATION":"53.2161","RA_OF_ASC_NODE":"176.1281","MEAN_MOTION_DOT":"0.00000759","LAUNCH_DATE":"2022-01-19","ELEMENT_SET_NO":"999","APOAPSIS":"540.463","MEAN_ANOMALY":"271.3626","REV_AT_EPOCH":"7506","OBJECT_ID":"2022-005F","PERIAPSIS":"539.022","BSTAR":"0.00006576500000","MEAN_MOTION_DDOT":"0.0000000000000","DECAY_DATE":null,"GP_ID":"232634899","ARG_OF_PERICENTER":"88.7486","PERIOD":"95.437","TIME_SYSTEM":"UTC","COUNTRY_CODE":"US"},{"OBJECT_NAME":"STARLINK-3344","ECCENTRICITY":"0.00011140","CENTER_NAME":"EARTH","TLE_LINE1":"1 51110U 22005G   23147.78610791  .00000361  00000-0  40782-4 0  9998","FILE":"3918755","MEAN_MOTION":"15.08837839","REF_FRAME":"TEME","RCS_SIZE":"LARGE","MEAN_ELEMENT_THEORY":"SGP4","TLE_LINE2":"2 51110  53.2154 174.2048 0001114  79.7397 280.3720 15.08837839 75360","NORAD_CAT_ID":"51110","SEMIMAJOR_AXIS":"6917.887","EPOCH":"2023-05-27T18:51:59.723424","SITE":"AFETR","BSTAR":"0.00004078200000","MEAN_MOTION_DDOT":"0.0000000000000","DECAY_DATE":null,"OBJECT_ID":"2022-005G","PERIAPSIS":"538.981","TIME_SYSTEM":"UTC","COUNTRY_CODE":"US","GP_ID":"232635151","PERIOD":"95.438","ARG_OF_PERICENTER":"79.7397","OBJECT_TYPE":"PAYLOAD","EPHEMERIS_TYPE":"0","CLASSIFICATION_TYPE":"U","LAUNCH_DATE":"2022-01-19","ELEMENT_SET_NO":"999","MEAN_MOTION_DOT":"0.00000361","APOAPSIS":"540.523","MEAN_ANOMALY":"280.3720","REV_AT_EPOCH":"7536","INCLINATION":"53.2154","RA_OF_ASC_NODE":"174.2048"},{"MEAN_ELEMENT_THEORY":"SGP4","TLE_LINE2":"2 51111  53.2151 176.0791 0001065  85.6916 274.4198 15.08840549 75298","SEMIMAJOR_AXIS":"6917.879","EPOCH":"2023-05-27T08:41:12.016896","NORAD_CAT_ID":"51111","SITE":"AFETR","OBJECT_NAME":"STARLINK-3173","TLE_LINE1":"1 51111U 22005H   23147.36194464 -.00000116  00000-0  10818-4 0  9993","CENTER_NAME":"EARTH","ECCENTRICITY":"0.00010650","FILE":"3918755","MEAN_MOTION":"15.08840549","REF_FRAME":"TEME","RCS_SIZE":"LARGE","OBJECT_TYPE":"PAYLOAD","EPHEMERIS_TYPE":"0","CLASSIFICATION_TYPE":"U","APOAPSIS":"540.480","MEAN_MOTION_DOT":"-0.00000116","LAUNCH_DATE":"2022-01-19","ELEMENT_SET_NO":"999","REV_AT_EPOCH":"7529","MEAN_ANOMALY":"274.4198","INCLINATION":"53.2151","RA_OF_ASC_NODE":"176.0791","BSTAR":"0.00001081800000","DECAY_DATE":null,"MEAN_MOTION_DDOT":"0.0000000000000","OBJECT_ID":"2022-005H","PERIAPSIS":"539.007","TIME_SYSTEM":"UTC","COUNTRY_CODE":"US","PERIOD":"95.438","ARG_OF_PERICENTER":"85.6916","GP_ID":"232635901"},{"COUNTRY_CODE":"US","TIME_SYSTEM":"UTC","GP_ID":"232634150","ARG_OF_PERICENTER":"82.8517","PERIOD":"95.438","MEAN_MOTION_DDOT":"0.0000000000000","DECAY_DATE":null,"BSTAR":"0.00004442600000","PERIAPSIS":"539.040","OBJECT_ID":"2022-005J","MEAN_ANOMALY":"277.2593","REV_AT_EPOCH":"7536","LAUNCH_DATE":"2022-01-19","ELEMENT_SET_NO":"999","MEAN_MOTION_DOT":"0.00000419","APOAPSIS":"540.469","RA_OF_ASC_NODE":"174.1992","INCLINATION":"53.2158","OBJECT_TYPE":"PAYLOAD","CLASSIFICATION_TYPE":"U","EPHEMERIS_TYPE":"0","RCS_SIZE":"LARGE","CENTER_NAME":"EARTH","ECCENTRICITY":"0.00010330","TLE_LINE1":"1 51112U 22005J   23147.78146840  .00000419  00000-0  44426-4 0  9992","OBJECT_NAME":"STARLINK-3374","REF_FRAME":"TEME","FILE":"3918755","MEAN_MOTION":"15.08836945","SITE":"AFETR","MEAN_ELEMENT_THEORY":"SGP4","NORAD_CAT_ID":"51112","EPOCH":"2023-05-27T18:45:18.869760","SEMIMAJOR_AXIS":"6917.890","TLE_LINE2":"2 51112  53.2158 174.1992 0001033  82.8517 277.2593 15.08836945 75362"},{"RCS_SIZE":"LARGE","REF_FRAME":"TEME","MEAN_MOTION":"15.08837637","FILE":"3918755","ECCENTRICITY":"0.00010830","CENTER_NAME":"EARTH","TLE_LINE1":"1 51113U 22005K   23147.77042827 -.00000032  00000-0  16100-4 0  9992","OBJECT_NAME":"STARLINK-3372","SITE":"AFETR","NORAD_CAT_ID":"51113","EPOCH":"2023-05-27T18:29:25.002528","SEMIMAJOR_AXIS":"6917.888","TLE_LINE2":"2 51113  53.2150 174.2495 0001083  89.6473 270.4644 15.08837637 75355","MEAN_ELEMENT_THEORY":"SGP4","GP_ID":"232634400","ARG_OF_PERICENTER":"89.6473","PERIOD":"95.438","COUNTRY_CODE":"US","TIME_SYSTEM":"UTC","PERIAPSIS":"539.003","OBJECT_ID":"2022-005K","MEAN_MOTION_DDOT":"0.0000000000000","DECAY_DATE":null,"BSTAR":"0.00001610000000","RA_OF_ASC_NODE":"174.2495","INCLINATION":"53.2150","MEAN_ANOMALY":"270.4644","REV_AT_EPOCH":"7535","MEAN_MOTION_DOT":"-0.00000032","LAUNCH_DATE":"2022-01-19","ELEMENT_SET_NO":"999","APOAPSIS":"540.502","CLASSIFICATION_TYPE":"U","EPHEMERIS_TYPE":"0","OBJECT_TYPE":"PAYLOAD"},{"SITE":"AFETR","MEAN_ELEMENT_THEORY":"SGP4","TLE_LINE2":"2 51114  53.2159 174.1641 0001029  82.4811 277.6298 15.08838893 75364","EPOCH":"2023-05-27T18:55:54.753024","SEMIMAJOR_AXIS":"6917.884","NORAD_CAT_ID":"51114","RCS_SIZE":"LARGE","OBJECT_NAME":"STARLINK-3375","TLE_LINE1":"1 51114U 22005L   23147.78882816  .00000858  00000-0  72015-4 0  9996","CENTER_NAME":"EARTH","ECCENTRICITY":"0.00010290","MEAN_MOTION":"15.08838893","FILE":"3918755","REF_FRAME":"TEME","APOAPSIS":"540.461","LAUNCH_DATE":"2022-01-19","ELEMENT_SET_NO":"999","MEAN_MOTION_DOT":"0.00000858","REV_AT_EPOCH":"7536","MEAN_ANOMALY":"277.6298","INCLINATION":"53.2159","RA_OF_ASC_NODE":"174.1641","OBJECT_TYPE":"PAYLOAD","EPHEMERIS_TYPE":"0","CLASSIFICATION_TYPE":"U","TIME_SYSTEM":"UTC","COUNTRY_CODE":"US","PERIOD":"95.438","ARG_OF_PERICENTER":"82.4811","GP_ID":"232635651","BSTAR":"0.00007201500000","DECAY_DATE":null,"MEAN_MOTION_DDOT":"0.0000000000000","OBJECT_ID":"2022-005L","PERIAPSIS":"539.037"},{"RCS_SIZE":"LARGE","REF_FRAME":"TEME","FILE":"3918755","MEAN_MOTION":"15.08836826","TLE_LINE1":"1 51115U 22005M   23147.76306608 -.00000251  00000-0  23267-5 0  9999","ECCENTRICITY":"0.00010040","CENTER_NAME":"EARTH","OBJECT_NAME":"STARLINK-3397","SITE":"AFETR","SEMIMAJOR_AXIS":"6917.890","EPOCH":"2023-05-27T18:18:48.909312","NORAD_CAT_ID":"51115","TLE_LINE2":"2 51115  53.2148 174.2810 0001004  77.1274 282.9831 15.08836826 75354","MEAN_ELEMENT_THEORY":"SGP4","ARG_OF_PERICENTER":"77.1274","PERIOD":"95.438","GP_ID":"232635402","COUNTRY_CODE":"US","TIME_SYSTEM":"UTC","PERIAPSIS":"539.061","OBJECT_ID":"2022-005M","DECAY_DATE":null,"MEAN_MOTION_DDOT":"0.0000000000000","BSTAR":"0.00000232670000","INCLINATION":"53.2148","RA_OF_ASC_NODE":"174.2810","REV_AT_EPOCH":"7535","MEAN_ANOMALY":"282.9831","APOAPSIS":"540.450","LAUNCH_DATE":"2022-01-19","ELEMENT_SET_NO":"999","MEAN_MOTION_DOT":"-0.00000251","CLASSIFICATION_TYPE":"U","EPHEMERIS_TYPE":"0","OBJECT_TYPE":"PAYLOAD"},{"SITE":"AFETR","MEAN_ELEMENT_THEORY":"SGP4","TLE_LINE2":"2 51116  53.2157 174.1983 0000985  87.7322 272.3783 15.08837549 75355","EPOCH":"2023-05-27T18:36:05.275584","SEMIMAJOR_AXIS":"6917.888","NORAD_CAT_ID":"51116","RCS_SIZE":"LARGE","OBJECT_NAME":"STARLINK-3243","TLE_LINE1":"1 51116U 22005N   23147.77506106 -.00000117  00000-0  10752-4 0  9991","CENTER_NAME":"EARTH","ECCENTRICITY":"0.00009850","MEAN_MOTION":"15.08837549","FILE":"3918755","REF_FRAME":"TEME","APOAPSIS":"540.434","ELEMENT_SET_NO":"999","LAUNCH_DATE":"2022-01-19","MEAN_MOTION_DOT":"-0.00000117","REV_AT_EPOCH":"7535","MEAN_ANOMALY":"272.3783","INCLINATION":"53.2157","RA_OF_ASC_NODE":"174.1983","OBJECT_TYPE":"PAYLOAD","EPHEMERIS_TYPE":"0","CLASSIFICATION_TYPE":"U","TIME_SYSTEM":"UTC","COUNTRY_CODE":"US","PERIOD":"95.438","ARG_OF_PERICENTER":"87.7322","GP_ID":"232634650","BSTAR":"0.00001075200000","DECAY_DATE":null,"MEAN_MOTION_DDOT":"0.0000000000000","OBJECT_ID":"2022-005N","PERIAPSIS":"539.071"},{"CLASSIFICATION_TYPE":"U","EPHEMERIS_TYPE":"0","OBJECT_TYPE":"PAYLOAD","INCLINATION":"53.2164","RA_OF_ASC_NODE":"174.0303","REV_AT_EPOCH":"7536","MEAN_ANOMALY":"264.5205","APOAPSIS":"540.592","LAUNCH_DATE":"2022-01-19","ELEMENT_SET_NO":"999","MEAN_MOTION_DOT":"-0.00000554","PERIAPSIS":"538.923","OBJECT_ID":"2022-005P","DECAY_DATE":null,"MEAN_MOTION_DDOT":"0.0000000000000","BSTAR":"-0.00001675000000","PERIOD":"95.438","ARG_OF_PERICENTER":"95.5925","GP_ID":"232634900","COUNTRY_CODE":"US","TIME_SYSTEM":"UTC","EPOCH":"2023-05-27T19:29:04.980480","SEMIMAJOR_AXIS":"6917.892","NORAD_CAT_ID":"51117","TLE_LINE2":"2 51117  53.2164 174.0303 0001206  95.5925 264.5205 15.08836123 75362","MEAN_ELEMENT_THEORY":"SGP4","SITE":"AFETR","REF_FRAME":"TEME","MEAN_MOTION":"15.08836123","FILE":"3918755","TLE_LINE1":"1 51117U 22005P   23147.81186320 -.00000554  00000-0 -16750-4 0  9999","CENTER_NAME":"EARTH","ECCENTRICITY":"0.00012060","OBJECT_NAME":"STARLINK-3391","RCS_SIZE":"LARGE"},{"OBJECT_NAME":"STARLINK-3394","TLE_LINE1":"1 51118U 22005Q   23147.76674591 -.00000397  00000-0 -68777-5 0  9998","ECCENTRICITY":"0.00008710","CENTER_NAME":"EARTH","FILE":"3918755","MEAN_MOTION":"15.08837736","REF_FRAME":"TEME","RCS_SIZE":"LARGE","MEAN_ELEMENT_THEORY":"SGP4","TLE_LINE2":"2 51118  53.2155 174.2637 0000871  81.3590 278.7501 15.08837736 75359","SEMIMAJOR_AXIS":"6917.887","EPOCH":"2023-05-27T18:24:06.846624","NORAD_CAT_ID":"51118","SITE":"AFETR","BSTAR":"-0.00000687770000","DECAY_DATE":null,"MEAN_MOTION_DDOT":"0.0000000000000","OBJECT_ID":"2022-005Q","PERIAPSIS":"539.150","TIME_SYSTEM":"UTC","COUNTRY_CODE":"US","PERIOD":"95.438","ARG_OF_PERICENTER":"81.3590","GP_ID":"232635152","OBJECT_TYPE":"PAYLOAD","EPHEMERIS_TYPE":"0","CLASSIFICATION_TYPE":"U","APOAPSIS":"540.355","MEAN_MOTION_DOT":"-0.00000397","LAUNCH_DATE":"2022-01-19","ELEMENT_SET_NO":"999","REV_AT_EPOCH":"7535","MEAN_ANOMALY":"278.7501","INCLINATION":"53.2155","RA_OF_ASC_NODE":"174.2637"}];
